NUSAT-1 (FRESCO)        
1 41557U 16033B   22287.87003939  .00026768  00000+0  71961-3 0  9990
2 41557  97.3902  26.0026 0009248 312.2703 188.1828 15.37832487355716
BEESAT-4                
1 41619U 16040W   22287.40470643  .00025025  00000+0  74670-3 0  9991
2 41619  97.2024 335.0085 0009698  58.5625 301.6566 15.34576564338944
CAS-2T & KS-1Q          
1 41847U 16066G   22287.47884059  .00001786  00000+0  27758-3 0  9992
2 41847  98.5380 351.9634 0362529 213.6173 144.1537 14.38789746311467
NAYIF-1 (EO-88)         
1 42017U 17008BX  22287.23554305  .00032549  00000+0  84933-3 0  9990
2 42017  97.2554 351.8304 0004838 164.5720 195.5674 15.38742062315318
ZHUHAI-1 02 (CAS-4B)    
1 42759U 17034B   22287.80565787  .00008476  00000+0  48577-3 0  9997
2 42759  43.0181  34.4564 0010972 319.8016 184.4840 15.12808941294428
ZHUHAI-1 01 (CAS-4A)    
1 42761U 17034D   22287.76634050  .00008982  00000+0  51264-3 0  9994
2 42761  43.0188  33.3725 0011103 320.9883 170.7435 15.12899780294426
MAX VALIER SAT          
1 42778U 17036P   22287.06597328  .00014467  00000+0  51631-3 0  9996
2 42778  97.1928 324.1480 0008433 261.7947  98.2337 15.28936580295018
RADFXSAT (FOX-1B)       
1 43017U 17073E   22287.42318297  .00005087  00000+0  37824-3 0  9996
2 43017  97.6567 176.7123 0246294 157.6166 203.6022 14.82260004264737
FOX-1D (AO-92)          
1 43137U 18004AC  22287.16241221  .00018116  00000+0  59214-3 0  9991
2 43137  97.3582   1.3525 0006020 305.8435  54.2247 15.31764259264500
DIWATA-2B               
1 43678U 18084H   22287.73804164  .00002246  00000+0  22511-3 0  9990
2 43678  97.9879  62.5333 0008595 249.3540 110.6764 14.92387215215640
ES'HAIL 2               
1 43700U 18090A   22287.68301214  .00000143  00000+0  00000+0 0  9994
2 43700   0.0175 170.5906 0002772  68.1021  56.1975  1.00273603 14463
FOX-1CLIFF (AO-95)      
1 43770U 18099N   22287.46057567  .00005391  00000+0  47248-3 0  9994
2 43770  97.6079 350.6820 0012649 231.4943 128.5145 14.97011903210816
ITASAT 1                
1 43786U 18099AE  22287.44487999  .00003989  00000+0  35029-3 0  9990
2 43786  97.6102 351.6469 0013968 225.7337 134.2739 14.97075617210857
JY1SAT (JO-97)          
1 43803U 18099AX  22287.41900031  .00004457  00000+0  38450-3 0  9996
2 43803  97.6081 351.4187 0013249 224.2041 135.8124 14.97712264210879
UWE-4                   
1 43880U 18111E   22287.46560110  .00005691  00000+0  47590-3 0  9997
2 43880  97.6549 191.6723 0010637 280.6034  79.3991 14.98832501207529
NEXUS (FO-99)           
1 43937U 19003F   22287.83224707  .00026175  00000+0  79799-3 0  9997
2 43937  97.1206 316.6848 0021059  87.5029 272.8625 15.33708288208251
PSAT2 (NO-104)          
1 44354U 19036R   22287.48256426  .00117703 -32804-5  77379-3 0  9995
2 44354  28.5240  65.2197 0175652 245.7594 112.4564 15.55922421183129
JAISAT-1                
1 44419U 19038F   22287.47430389  .00018277  00000+0  86349-3 0  9999
2 44419  97.6504 258.7799 0020806  81.4530 278.9060 15.19278272181117
DUCHIFAT-3              
1 44854U 19089C   22287.74758679  .00007857  00000+0  59454-3 0  9992
2 44854  36.9657 112.7458 0006357 104.1408 255.9913 15.01923912155873
CAS-6 (TIANQIN 1)       
1 44881U 19093C   22287.89927390  .00001358  00000+0  17804-3 0  9994
2 44881  97.8857   5.3560 0015507 152.9563 207.2429 14.81870164152463
RS-44 & BREEZE-KM R/B   
1 44909U 19096E   22287.34101640  .00000020  00000+0  32673-4 0  9997
2 44909  82.5210 151.3138 0218173  41.9461 319.8122 12.79715849130716
ORBITAL FACTORY 2 (OF-2)
1 45113U 19071C   22287.45407599  .00070828  00000+0  11279-2 0  9992
2 45113  51.6352 191.3079 0008094 232.2386 127.7871 15.52579798151812
HUSKYSAT-1 (HO-107)     
1 45119U 19071J   22287.10828347  .00047815  00000+0  82171-3 0  9998
2 45119  51.6350 194.2139 0008239 228.3664 131.6620 15.50614536151736
BY70-2                  
1 45857U 20042B   22287.99004883  .00015583  00000+0  19946-2 0  9991
2 45857  97.9490   3.7571 0011381  91.4792 268.7431 14.81374201123141
SALSAT                  
1 46495U 20068K   22287.39516506  .00004833  00000+0  34366-3 0  9992
2 46495  97.7387 228.8151 0015176 231.3106 128.6763 15.05057370112071
BY70-3                  
1 46839U 20079N   22287.92412942  .00052470  00000+0  10025-2 0  9999
2 46839  97.1858 358.7825 0004162 244.5872 230.4753 15.47936205108682
RADFXSAT-2 (AO-109)     
1 47311U 21002C   22287.31548244  .00016865  00000+0  62355-3 0  9992
2 47311  60.6839 274.2239 0035887  53.1112 307.3257 15.27289876 96606
UVSQ-SAT                
1 47438U 21006AB  22287.39689972  .00009561  00000+0  48505-3 0  9994
2 47438  97.4231 343.9765 0010686 215.5991 144.4530 15.17090289 95304
DIY-1 (ARDUIQUBE)       
1 47963U 21022AH  22287.22730812  .00031779  00000+0  15800-2 0  9994
2 47963  97.5183 187.3979 0018531  83.1394 277.1947 15.17421817 84932
XW-3 (CAS-9)            
1 50466U 21131B   22287.80853714  .00000457  00000+0  16409-3 0  9994
2 50466  98.5731   4.9627 0005397 144.8325 215.3219 14.38548265 42077
TEVEL-3                 
1 50988U 22002E   22287.91072495  .00014923  00000+0  77689-3 0  9992
2 50988  97.4698 352.9368 0009474  19.0766  96.1964 15.16078170 41505
TEVEL-8                 
1 50989U 22002F   22287.79237956  .00015097  00000+0  78715-3 0  9998
2 50989  97.4719 352.8504 0009632  18.8396 120.4477 15.16021674 41487
TEVEL-5                 
1 50998U 22002Q   22287.76655471  .00015321  00000+0  78564-3 0  9993
2 50998  97.4688 352.9592 0010890  11.9479 134.4711 15.16592636 41492
TEVEL-6                 
1 50999U 22002R   22287.76575755  .00015298  00000+0  78440-3 0  9996
2 50999  97.4700 352.9557 0010735  12.2702 133.6964 15.16597590 41495
TEVEL-1                 
1 51013U 22002AF  22287.78742936  .00015339  00000+0  79908-3 0  9999
2 51013  97.4699 352.7875 0009469  19.3972 120.2993 15.16049645 41486
TEVEL-7                 
1 51062U 22002CG  22287.79429718  .00015132  00000+0  78905-3 0  9991
2 51062  97.4709 352.8353 0009626  18.2055 120.9157 15.16016782 41484
TEVEL-4                 
1 51063U 22002CH  22287.79548811  .00015288  00000+0  79742-3 0  9990
2 51063  97.4713 352.8314 0009398  19.5072 119.5263 15.16005442 41489
TEVEL-2                 
1 51069U 22002CP  22287.78503111  .00015196  00000+0  79123-3 0  9990
2 51069  97.4705 352.7970 0009301  19.2814 121.8601 15.16070438 41487
GREENCUBE               
1 53106U 22080B   22276.55284936 -.00000003  00000+0  00000+0 0  9990
2 53106  70.1655  48.8724 0008696 239.2659 120.7144  6.42557820  5260
YUZGU 9 (RS3S)          
1 53308U 98067TT  22287.85993343  .00099732  00000+0  12726-2 0  9993
2 53308  51.6377 101.6477 0004329 289.7458  70.3067 15.58469463 13319
YUZGU 7 (RS1S)          
1 53309U 98067TU  22287.85381647  .00105303  00000+0  13251-2 0  9998
2 53309  51.6371 101.6038 0004259 298.8732  61.1833 15.58813407 13269
YUZGU 11 (RS5S)         
1 53310U 98067TV  22287.85933403  .00098591  00000+0  12564-2 0  9999
2 53310  51.6376 101.6446 0003928 298.3100  61.7496 15.58510978 13296
YUZGU 12 (RS6S)         
1 53311U 98067TW  22287.84534725  .00109216  00000+0  13563-2 0  9990
2 53311  51.6371 101.5463 0004756 283.9846  76.0618 15.59142950 13317
TSIOLKOVSKY-RYAZAN 1 (*)
1 53312U 98067TX  22287.85197299  .00109287  00000+0  13750-2 0  9999
2 53312  51.6379 101.5942 0004192 302.7547  57.3041 15.58800415 13251
TSIOLKOVSKY-RYAZAN 2 (*)
1 53313U 98067TY  22287.84979884  .00106131  00000+0  13362-2 0  9991
2 53313  51.6378 101.5800 0003760 298.7114  61.3500 15.58798309 13307
YUZGU 10 (RS4S)         
1 53321U 98067TZ  22287.85836388  .00101435  00000+0  12850-2 0  9995
2 53321  51.6376 101.6376 0004255 294.1178  65.9369 15.58653869 13307
RS29S (SXC3-2110 CYCLO*)
1 53373U 22096D   22287.79148911  .00019965  00000+0  78220-3 0  9992
2 53373  97.4286 188.7768 0001536  40.9050  44.4085 15.25818025 10134
RS32S (SXC3-212 MONITO*)
1 53374U 22096E   22287.78684419  .00019911  00000+0  77742-3 0  9999
2 53374  97.4285 188.7820 0001406  57.9920  28.2770 15.25932826 10130
RS34S (SXC3-218 KUZBAS*)
1 53375U 22096F   22287.78888433  .00016280  00000+0  64025-3 0  9998
2 53375  97.4286 188.7798 0000981  52.3270  33.8612 15.25735030 10135
RS23S (SXC3-21 UTMN)    
1 53376U 22096G   22287.84951097  .00016291  00000+0  63989-3 0  9993
2 53376  97.4297 188.8450 0001488  48.8790  17.3335 15.25775939 10146
RS28S (SXC3-214 MIET-A*)
1 53377U 22096H   22287.84805216  .00016262  00000+0  63854-3 0  9994
2 53377  97.4292 188.8453 0001079  58.1094   6.9059 15.25788215 10140
RS26S (KAI-1)           
1 53378U 22096J   22287.78642986  .00014221  00000+0  56043-3 0  9996
2 53378  97.4290 188.7838 0000796  63.0600  22.4745 15.25697661 10136
RS19S (SXC3-219 ISOI)   
1 53381U 22096M   22287.76694576  .00016982  00000+0  65725-3 0  9993
2 53381  97.4278 188.8081 0003155 183.9576 262.4052 15.26255709 10134
RS21S (CUBESX-HSE-2)    
1 53383U 22096P   22287.83012231  .00017251  00000+0  66714-3 0  9994
2 53383  97.4288 188.8769 0003269 185.4512 259.3254 15.26279663 10148
RS30S (SXC3-217 SIREN)  
1 53384U 22096Q   22287.82781059  .00015625  00000+0  60527-3 0  9994
2 53384  97.4286 188.8740 0003364 186.8387 246.0229 15.26243943 10144
RS20S (GEOSCAN-EDELVEIS)
1 53385U 22096R   22287.81890765  .00020926  00000+0  79714-3 0  9997
2 53385  97.4287 188.8908 0004016 188.3004 257.9941 15.26738259 10174
RS33S (SXC3-215 VIZARD) 
1 53386U 22096S   22287.80584941  .00025353  00000+0  95002-3 0  9990
2 53386  97.4282 188.9100 0004430 196.4683 252.2842 15.27242069 10165
